[
  "CYTH 100400Z CCA 34013KT 15SM DRSN BKN019 M18/M21 A3020 RMK SC7 SLP256",
  "CYMT 100400Z AUTO 25003KT 1 1/2SM -SN OVC030 M06/M07 A2955 RMK SLP037",
  "CYXR 100422Z AUTO 21007KT 1 1/2SM -SN OVC020 M01/M02 A2966 RMK VIS VRB 1-2 1/2 SLP058",
  "CYMH 100400Z AUTO 23008KT 9SM CLR M08/M14 A2993 RMK SLP138",
  "CYND 100200Z 21004KT 160V230 15SM -SN OVC042 01/M03 A2993 RMK SC8 LAST STFD OBS/NEXT 101200 UTC SLP139",
  "CYPR 020000Z AUTO 22009G20KT 190V260 9SM FEW039 BKN055 BKN120 BKN140 03/M04 A2985 RMK SLP110",
  "CYPR 020000Z AUTO 22009G20KT 190V260 9SM FEW039 BKN055 BKN120 BKN140 03/M04 A2985 RMK SLP110",
  "CYQA 020000Z AUTO 14006KT 1 3/4SM -SN OVC033 M03/M04 A2968 RMK SLP068",
  "CYVP 100500Z 22010G16KT 15SM FEW068 FEW090 SCT110 M13/M16 A2958 RMK AC1AC1AC1 SLP022",
  "CYVP 100500Z 22010G16KT 15SM FEW068 FEW090 SCT110 M13/M16 A2958 RMK AC1AC1AC1 SLP022",
  "CYOD 152100Z 21006KT 10SM OVC009 M01/M03 A2968 RMK ST8 SLP081",
  "CYJF 142300Z 06007KT 3/4SM -SN OVC050 M18/M21 A3002 RMK SN7SC1 S03 AFT 12Z/2.6/LAST STFD OBS/NXT 151500Z SLP190",
  "CYYG 272200Z 01004KT 15SM BKN230 00/M02 A2992 RMK CI7 SLP135"
]
